{
"type": "FeatureCollection",
"name": "non_veget_day3",
"crs": { "type": "name", "properties": { "name": "urn:ogc:def:crs:EPSG::32720" } },
"features": [
{ "type": "Feature", "properties": { "area_m2": 13800.0, "area_gradi2": 1.1360014314852614e-06, "area_ha": 1.38 }, "geometry": { "type": "Polygon", "coordinates": [ [ [ 509650.0, 8992020.0 ], [ 509650.0, 8992010.0 ], [ 509630.0, 8992010.0 ], [ 509630.0, 8991990.0 ], [ 509620.0, 8991990.0 ], [ 509620.0, 8991970.0 ], [ 509630.0, 8991970.0 ], [ 509630.0, 8991950.0 ], [ 509650.0, 8991950.0 ], [ 509650.0, 8991940.0 ], [ 509660.0, 8991940.0 ], [ 509660.0, 8991930.0 ], [ 509670.0, 8991930.0 ], [ 509670.0, 8991920.0 ], [ 509680.0, 8991920.0 ], [ 509680.0, 8991910.0 ], [ 509720.0, 8991910.0 ], [ 509720.0, 8991900.0 ], [ 509750.0, 8991900.0 ], [ 509750.0, 8991880.0 ], [ 509760.0, 8991880.0 ], [ 509760.0, 8991800.0 ], [ 509770.0, 8991800.0 ], [ 509770.0, 8991780.0 ], [ 509780.0, 8991780.0 ], [ 509780.0, 8991750.0 ], [ 509790.0, 8991750.0 ], [ 509790.0, 8991940.0 ], [ 509770.0, 8991940.0 ], [ 509770.0, 8991950.0 ], [ 509750.0, 8991950.0 ], [ 509750.0, 8991960.0 ], [ 509720.0, 8991960.0 ], [ 509720.0, 8991970.0 ], [ 509700.0, 8991970.0 ], [ 509700.0, 8991980.0 ], [ 509690.0, 8991980.0 ], [ 509690.0, 8991990.0 ], [ 509670.0, 8991990.0 ], [ 509670.0, 8992000.0 ], [ 509660.0, 8992000.0 ], [ 509660.0, 8992020.0 ], [ 509650.0, 8992020.0 ] ] ] } },
{ "type": "Feature", "properties": { "area_m2": 5800.0, "area_gradi2": 4.7745703646326253e-07, "area_ha": 0.58 }, "geometry": { "type": "Polygon", "coordinates": [ [ [ 509740.0, 8991370.0 ], [ 509740.0, 8991360.0 ], [ 509710.0, 8991360.0 ], [ 509710.0, 8991320.0 ], [ 509720.0, 8991320.0 ], [ 509720.0, 8991280.0 ], [ 509730.0, 8991280.0 ], [ 509730.0, 8991220.0 ], [ 509740.0, 8991220.0 ], [ 509740.0, 8991230.0 ], [ 509750.0, 8991230.0 ], [ 509750.0, 8991240.0 ], [ 509760.0, 8991240.0 ], [ 509760.0, 8991260.0 ], [ 509770.0, 8991260.0 ], [ 509770.0, 8991280.0 ], [ 509780.0, 8991280.0 ], [ 509780.0, 8991310.0 ], [ 509770.0, 8991310.0 ], [ 509770.0, 8991300.0 ], [ 509760.0, 8991300.0 ], [ 509760.0, 8991280.0 ], [ 509750.0, 8991280.0 ], [ 509750.0, 8991250.0 ], [ 509740.0, 8991250.0 ], [ 509740.0, 8991300.0 ], [ 509750.0, 8991300.0 ], [ 509750.0, 8991310.0 ], [ 509760.0, 8991310.0 ], [ 509760.0, 8991330.0 ], [ 509780.0, 8991330.0 ], [ 509780.0, 8991350.0 ], [ 509770.0, 8991350.0 ], [ 509770.0, 8991370.0 ], [ 509740.0, 8991370.0 ] ] ] } },
{ "type": "Feature", "properties": { "area_m2": 8400.0, "area_gradi2": 6.9149098369944505e-07, "area_ha": 0.84 }, "geometry": { "type": "Polygon", "coordinates": [ [ [ 509000.0, 8991310.0 ], [ 509000.0, 8991300.0 ], [ 508990.0, 8991300.0 ], [ 508990.0, 8991290.0 ], [ 508980.0, 8991290.0 ], [ 508980.0, 8991250.0 ], [ 508990.0, 8991250.0 ], [ 508990.0, 8991240.0 ], [ 509000.0, 8991240.0 ], [ 509000.0, 8991220.0 ], [ 509020.0, 8991220.0 ], [ 509020.0, 8991210.0 ], [ 509030.0, 8991210.0 ], [ 509030.0, 8991160.0 ], [ 509040.0, 8991160.0 ], [ 509040.0, 8991150.0 ], [ 509050.0, 8991150.0 ], [ 509050.0, 8991190.0 ], [ 509060.0, 8991190.0 ], [ 509060.0, 8991200.0 ], [ 509090.0, 8991200.0 ], [ 509090.0, 8991190.0 ], [ 509100.0, 8991190.0 ], [ 509100.0, 8991180.0 ], [ 509110.0, 8991180.0 ], [ 509110.0, 8991220.0 ], [ 509100.0, 8991220.0 ], [ 509100.0, 8991230.0 ], [ 509050.0, 8991230.0 ], [ 509050.0, 8991280.0 ], [ 509040.0, 8991280.0 ], [ 509040.0, 8991290.0 ], [ 509030.0, 8991290.0 ], [ 509030.0, 8991300.0 ], [ 509020.0, 8991300.0 ], [ 509020.0, 8991310.0 ], [ 509000.0, 8991310.0 ] ] ] } },
{ "type": "Feature", "properties": { "area_m2": 9700.0, "area_gradi2": 7.9850992836496783e-07, "area_ha": 0.97 }, "geometry": { "type": "Polygon", "coordinates": [ [ [ 509110.0, 8991150.0 ], [ 509110.0, 8991140.0 ], [ 509070.0, 8991140.0 ], [ 509070.0, 8991130.0 ], [ 509050.0, 8991130.0 ], [ 509050.0, 8991120.0 ], [ 509040.0, 8991120.0 ], [ 509040.0, 8991100.0 ], [ 509030.0, 8991100.0 ], [ 509030.0, 8991080.0 ], [ 509040.0, 8991080.0 ], [ 509040.0, 8991070.0 ], [ 509050.0, 8991070.0 ], [ 509050.0, 8991060.0 ], [ 509080.0, 8991060.0 ], [ 509080.0, 8991070.0 ], [ 509100.0, 8991070.0 ], [ 509100.0, 8991080.0 ], [ 509170.0, 8991080.0 ], [ 509170.0, 8991090.0 ], [ 509180.0, 8991090.0 ], [ 509180.0, 8991100.0 ], [ 509190.0, 8991100.0 ], [ 509190.0, 8991120.0 ], [ 509180.0, 8991120.0 ], [ 509180.0, 8991140.0 ], [ 509160.0, 8991140.0 ], [ 509160.0, 8991150.0 ], [ 509110.0, 8991150.0 ] ] ] } },
{ "type": "Feature", "properties": { "area_m2": 8000.0, "area_gradi2": 6.5856656048254839e-07, "area_ha": 0.8 }, "geometry": { "type": "Polygon", "coordinates": [ [ [ 509180.0, 8991070.0 ], [ 509180.0, 8991060.0 ], [ 509160.0, 8991060.0 ], [ 509160.0, 8991050.0 ], [ 509120.0, 8991050.0 ], [ 509120.0, 8991030.0 ], [ 509130.0, 8991030.0 ], [ 509130.0, 8991020.0 ], [ 509140.0, 8991020.0 ], [ 509140.0, 8991010.0 ], [ 509170.0, 8991010.0 ], [ 509170.0, 8991000.0 ], [ 509180.0, 8991000.0 ], [ 509180.0, 8990990.0 ], [ 509190.0, 8990990.0 ], [ 509190.0, 8990940.0 ], [ 509180.0, 8990940.0 ], [ 509180.0, 8990930.0 ], [ 509210.0, 8990930.0 ], [ 509210.0, 8990940.0 ], [ 509230.0, 8990940.0 ], [ 509230.0, 8990950.0 ], [ 509240.0, 8990950.0 ], [ 509240.0, 8990960.0 ], [ 509250.0, 8990960.0 ], [ 509250.0, 8990970.0 ], [ 509240.0, 8990970.0 ], [ 509240.0, 8990990.0 ], [ 509230.0, 8990990.0 ], [ 509230.0, 8991010.0 ], [ 509220.0, 8991010.0 ], [ 509220.0, 8991030.0 ], [ 509210.0, 8991030.0 ], [ 509210.0, 8991050.0 ], [ 509200.0, 8991050.0 ], [ 509200.0, 8991070.0 ], [ 509180.0, 8991070.0 ] ] ] } },
{ "type": "Feature", "properties": { "area_m2": 27100.0, "area_gradi2": 2.2309065894930365e-06, "area_ha": 2.71 }, "geometry": { "type": "Polygon", "coordinates": [ [ [ 509210.0, 8990900.0 ], [ 509210.0, 8990890.0 ], [ 509170.0, 8990890.0 ], [ 509170.0, 8990870.0 ], [ 509160.0, 8990870.0 ], [ 509160.0, 8990860.0 ], [ 509140.0, 8990860.0 ], [ 509140.0, 8990870.0 ], [ 509130.0, 8990870.0 ], [ 509130.0, 8990860.0 ], [ 509110.0, 8990860.0 ], [ 509110.0, 8990850.0 ], [ 509120.0, 8990850.0 ], [ 509120.0, 8990840.0 ], [ 509130.0, 8990840.0 ], [ 509130.0, 8990830.0 ], [ 509140.0, 8990830.0 ], [ 509140.0, 8990820.0 ], [ 509150.0, 8990820.0 ], [ 509150.0, 8990800.0 ], [ 509130.0, 8990800.0 ], [ 509130.0, 8990820.0 ], [ 509120.0, 8990820.0 ], [ 509120.0, 8990830.0 ], [ 509100.0, 8990830.0 ], [ 509100.0, 8990810.0 ], [ 509110.0, 8990810.0 ], [ 509110.0, 8990800.0 ], [ 509120.0, 8990800.0 ], [ 509120.0, 8990770.0 ], [ 509130.0, 8990770.0 ], [ 509130.0, 8990760.0 ], [ 509150.0, 8990760.0 ], [ 509150.0, 8990770.0 ], [ 509160.0, 8990770.0 ], [ 509160.0, 8990760.0 ], [ 509170.0, 8990760.0 ], [ 509170.0, 8990750.0 ], [ 509160.0, 8990750.0 ], [ 509160.0, 8990740.0 ], [ 509150.0, 8990740.0 ], [ 509150.0, 8990750.0 ], [ 509140.0, 8990750.0 ], [ 509140.0, 8990730.0 ], [ 509150.0, 8990730.0 ], [ 509150.0, 8990690.0 ], [ 509170.0, 8990690.0 ], [ 509170.0, 8990670.0 ], [ 509180.0, 8990670.0 ], [ 509180.0, 8990650.0 ], [ 509190.0, 8990650.0 ], [ 509190.0, 8990660.0 ], [ 509200.0, 8990660.0 ], [ 509200.0, 8990640.0 ], [ 509210.0, 8990640.0 ], [ 509210.0, 8990630.0 ], [ 509220.0, 8990630.0 ], [ 509220.0, 8990650.0 ], [ 509230.0, 8990650.0 ], [ 509230.0, 8990640.0 ], [ 509240.0, 8990640.0 ], [ 509240.0, 8990660.0 ], [ 509260.0, 8990660.0 ], [ 509260.0, 8990670.0 ], [ 509270.0, 8990670.0 ], [ 509270.0, 8990680.0 ], [ 509280.0, 8990680.0 ], [ 509280.0, 8990690.0 ], [ 509270.0, 8990690.0 ], [ 509270.0, 8990700.0 ], [ 509250.0, 8990700.0 ], [ 509250.0, 8990720.0 ], [ 509240.0, 8990720.0 ], [ 509240.0, 8990730.0 ], [ 509250.0, 8990730.0 ], [ 509250.0, 8990750.0 ], [ 509260.0, 8990750.0 ], [ 509260.0, 8990760.0 ], [ 509270.0, 8990760.0 ], [ 509270.0, 8990770.0 ], [ 509310.0, 8990770.0 ], [ 509310.0, 8990780.0 ], [ 509300.0, 8990780.0 ], [ 509300.0, 8990790.0 ], [ 509290.0, 8990790.0 ], [ 509290.0, 8990820.0 ], [ 509280.0, 8990820.0 ], [ 509280.0, 8990830.0 ], [ 509290.0, 8990830.0 ], [ 509290.0, 8990840.0 ], [ 509280.0, 8990840.0 ], [ 509280.0, 8990860.0 ], [ 509260.0, 8990860.0 ], [ 509260.0, 8990870.0 ], [ 509250.0, 8990870.0 ], [ 509250.0, 8990890.0 ], [ 509230.0, 8990890.0 ], [ 509230.0, 8990900.0 ], [ 509210.0, 8990900.0 ] ], [ [ 509180.0, 8990840.0 ], [ 509190.0, 8990840.0 ], [ 509190.0, 8990820.0 ], [ 509180.0, 8990820.0 ], [ 509180.0, 8990840.0 ] ], [ [ 509190.0, 8990810.0 ], [ 509200.0, 8990810.0 ], [ 509200.0, 8990790.0 ], [ 509210.0, 8990790.0 ], [ 509210.0, 8990780.0 ], [ 509220.0, 8990780.0 ], [ 509220.0, 8990760.0 ], [ 509230.0, 8990760.0 ], [ 509230.0, 8990730.0 ], [ 509220.0, 8990730.0 ], [ 509220.0, 8990720.0 ], [ 509210.0, 8990720.0 ], [ 509210.0, 8990730.0 ], [ 509190.0, 8990730.0 ], [ 509190.0, 8990740.0 ], [ 509180.0, 8990740.0 ], [ 509180.0, 8990770.0 ], [ 509190.0, 8990770.0 ], [ 509190.0, 8990780.0 ], [ 509170.0, 8990780.0 ], [ 509170.0, 8990800.0 ], [ 509180.0, 8990800.0 ], [ 509180.0, 8990790.0 ], [ 509190.0, 8990790.0 ], [ 509190.0, 8990810.0 ] ], [ [ 509150.0, 8990800.0 ], [ 509160.0, 8990800.0 ], [ 509160.0, 8990790.0 ], [ 509150.0, 8990790.0 ], [ 509150.0, 8990800.0 ] ] ] } },
{ "type": "Feature", "properties": { "area_m2": 15300.0, "area_gradi2": 1.2595234241838591e-06, "area_ha": 1.53 }, "geometry": { "type": "Polygon", "coordinates": [ [ [ 509340.0, 8990620.0 ], [ 509340.0, 8990610.0 ], [ 509330.0, 8990610.0 ], [ 509330.0, 8990600.0 ], [ 509320.0, 8990600.0 ], [ 509320.0, 8990590.0 ], [ 509310.0, 8990590.0 ], [ 509310.0, 8990560.0 ], [ 509300.0, 8990560.0 ], [ 509300.0, 8990550.0 ], [ 509280.0, 8990550.0 ], [ 509280.0, 8990540.0 ], [ 509270.0, 8990540.0 ], [ 509270.0, 8990530.0 ], [ 509250.0, 8990530.0 ], [ 509250.0, 8990500.0 ], [ 509260.0, 8990500.0 ], [ 509260.0, 8990480.0 ], [ 509270.0, 8990480.0 ], [ 509270.0, 8990470.0 ], [ 509280.0, 8990470.0 ], [ 509280.0, 8990480.0 ], [ 509300.0, 8990480.0 ], [ 509300.0, 8990460.0 ], [ 509340.0, 8990460.0 ], [ 509340.0, 8990450.0 ], [ 509360.0, 8990450.0 ], [ 509360.0, 8990460.0 ], [ 509370.0, 8990460.0 ], [ 509370.0, 8990470.0 ], [ 509390.0, 8990470.0 ], [ 509390.0, 8990460.0 ], [ 509400.0, 8990460.0 ], [ 509400.0, 8990470.0 ], [ 509410.0, 8990470.0 ], [ 509410.0, 8990490.0 ], [ 509400.0, 8990490.0 ], [ 509400.0, 8990500.0 ], [ 509390.0, 8990500.0 ], [ 509390.0, 8990530.0 ], [ 509380.0, 8990530.0 ], [ 509380.0, 8990570.0 ], [ 509370.0, 8990570.0 ], [ 509370.0, 8990620.0 ], [ 509340.0, 8990620.0 ] ] ] } },
{ "type": "Feature", "properties": { "area_m2": 15500.0, "area_gradi2": 1.2759939541236325e-06, "area_ha": 1.55 }, "geometry": { "type": "Polygon", "coordinates": [ [ [ 509530.0, 8990400.0 ], [ 509530.0, 8990390.0 ], [ 509500.0, 8990390.0 ], [ 509500.0, 8990380.0 ], [ 509490.0, 8990380.0 ], [ 509490.0, 8990370.0 ], [ 509480.0, 8990370.0 ], [ 509480.0, 8990360.0 ], [ 509470.0, 8990360.0 ], [ 509470.0, 8990350.0 ], [ 509460.0, 8990350.0 ], [ 509460.0, 8990320.0 ], [ 509470.0, 8990320.0 ], [ 509470.0, 8990300.0 ], [ 509480.0, 8990300.0 ], [ 509480.0, 8990280.0 ], [ 509490.0, 8990280.0 ], [ 509490.0, 8990270.0 ], [ 509500.0, 8990270.0 ], [ 509500.0, 8990260.0 ], [ 509510.0, 8990260.0 ], [ 509510.0, 8990250.0 ], [ 509520.0, 8990250.0 ], [ 509520.0, 8990240.0 ], [ 509550.0, 8990240.0 ], [ 509550.0, 8990250.0 ], [ 509570.0, 8990250.0 ], [ 509570.0, 8990260.0 ], [ 509580.0, 8990260.0 ], [ 509580.0, 8990270.0 ], [ 509590.0, 8990270.0 ], [ 509590.0, 8990300.0 ], [ 509570.0, 8990300.0 ], [ 509570.0, 8990310.0 ], [ 509580.0, 8990310.0 ], [ 509580.0, 8990360.0 ], [ 509610.0, 8990360.0 ], [ 509610.0, 8990390.0 ], [ 509580.0, 8990390.0 ], [ 509580.0, 8990380.0 ], [ 509570.0, 8990380.0 ], [ 509570.0, 8990390.0 ], [ 509560.0, 8990390.0 ], [ 509560.0, 8990400.0 ], [ 509530.0, 8990400.0 ] ] ] } },
{ "type": "Feature", "properties": { "area_m2": 18900.0, "area_gradi2": 1.5558941502832861e-06, "area_ha": 1.89 }, "geometry": { "type": "Polygon", "coordinates": [ [ [ 509420.0, 8990310.0 ], [ 509420.0, 8990300.0 ], [ 509410.0, 8990300.0 ], [ 509410.0, 8990290.0 ], [ 509400.0, 8990290.0 ], [ 509400.0, 8990240.0 ], [ 509410.0, 8990240.0 ], [ 509410.0, 8990220.0 ], [ 509420.0, 8990220.0 ], [ 509420.0, 8990210.0 ], [ 509430.0, 8990210.0 ], [ 509430.0, 8990200.0 ], [ 509460.0, 8990200.0 ], [ 509460.0, 8990190.0 ], [ 509480.0, 8990190.0 ], [ 509480.0, 8990150.0 ], [ 509490.0, 8990150.0 ], [ 509490.0, 8990140.0 ], [ 509500.0, 8990140.0 ], [ 509500.0, 8990130.0 ], [ 509510.0, 8990130.0 ], [ 509510.0, 8990120.0 ], [ 509520.0, 8990120.0 ], [ 509520.0, 8990100.0 ], [ 509560.0, 8990100.0 ], [ 509560.0, 8990120.0 ], [ 509570.0, 8990120.0 ], [ 509570.0, 8990150.0 ], [ 509580.0, 8990150.0 ], [ 509580.0, 8990160.0 ], [ 509590.0, 8990160.0 ], [ 509590.0, 8990170.0 ], [ 509610.0, 8990170.0 ], [ 509610.0, 8990190.0 ], [ 509620.0, 8990190.0 ], [ 509620.0, 8990220.0 ], [ 509580.0, 8990220.0 ], [ 509580.0, 8990210.0 ], [ 509530.0, 8990210.0 ], [ 509530.0, 8990220.0 ], [ 509520.0, 8990220.0 ], [ 509520.0, 8990230.0 ], [ 509500.0, 8990230.0 ], [ 509500.0, 8990240.0 ], [ 509490.0, 8990240.0 ], [ 509490.0, 8990250.0 ], [ 509480.0, 8990250.0 ], [ 509480.0, 8990260.0 ], [ 509470.0, 8990260.0 ], [ 509470.0, 8990280.0 ], [ 509460.0, 8990280.0 ], [ 509460.0, 8990290.0 ], [ 509450.0, 8990290.0 ], [ 509450.0, 8990300.0 ], [ 509440.0, 8990300.0 ], [ 509440.0, 8990310.0 ], [ 509420.0, 8990310.0 ] ] ] } }
]
}
